From: horizons@ssd.jpl.nasa.gov (Horizons Ephemeris System)
Subject: [Horizons] SMALL BODY #C(500@10)_T(PANSTARRS (P/2015 A3)) (1/1)
Date: February 23, 2021 at 4:21:03 PM PST

Automated mail xmit by MAIL_REQUEST, PID= 22901 Tue Feb 23 16:21:03 2021
++++++++++++++++++++++++++++++++ (part 1 of 1)  +++++++++++++++++++++++++++++++
*******************************************************************************
JPL/HORIZONS                PANSTARRS (P/2015 A3)          2021-Feb-23 16:21:02
Rec #:90004198 (+COV) Soln.date: 2021-Jan-30_21:12:54      # obs: 57 (155 days)

IAU76/J2000 helio. ecliptic osc. elements (au, days, deg., period=Julian yrs):

 EPOCH=  2457067.5 ! 2015-Feb-14.0000000 (TDB)    RMSW= n.a.
  EC= .8459096008253739   QR= 1.152929447182852   TP= 2457076.3748239297
  OM= 277.075158945082    W= 249.6199231767831    IN= 172.5106594055787
  A= 7.482162765223752    MA= 359.5726112439447   ADIST= 13.81139608326465
  PER= 20.46675268101     N= .048157434           ANGMOM= .025095047
  DAN= 3.01695            DDN= 1.64393            L= 27.615992
  B= -7.0180881           MOID= .20412999         TP= 2015-Feb-22.8748239297

Comet physical (GM= km^3/s^2; RAD= km):
  GM= n.a.                RAD= n.a.
  M1=  20.7     M2=  n.a.     k1=  4.5    k2= n.a.     PHCOF= n.a.

COMET comments 
1: soln ref.= JPL#2, data arc: 2015-01-08 to 2015-06-12
2: k1=4.5;
*******************************************************************************


*******************************************************************************
Ephemeris / MAIL_REQUEST Tue Feb 23 16:21:02 2021 Pasadena, USA  / Horizons
*******************************************************************************
Target body name: PANSTARRS (P/2015 A3)           {source: JPL#2}
Center body name: Sun (10)                        {source: DE431}
Center-site name: BODY CENTER
*******************************************************************************
Start time      : A.D. 1990-Jan-01 00:00:00.0000 TDB
Stop  time      : A.D. 2020-Dec-31 00:00:00.0000 TDB
Step-size       : 10080 minutes
*******************************************************************************
Center geodetic : 0.00000000,0.00000000,0.0000000 {E-lon(deg),Lat(deg),Alt(km)}
Center cylindric: 0.00000000,0.00000000,0.0000000 {E-lon(deg),Dxy(km),Dz(km)}
Center radii    : 696000.0 x 696000.0 x 696000.0 k{Equator, meridian, pole}    
Small perturbers: Yes                             {source: SB431-N16}
Output units    : AU-D
Output type     : GEOMETRIC cartesian states
Output format   : 6 (LT, range, and range-rate)
Reference frame : Ecliptic of J2000.0
*******************************************************************************
Initial IAU76/J2000 heliocentric ecliptic osculating elements (au, days, deg.):
 EPOCH=  2457067.5 ! 2015-Feb-14.0000000 (TDB)    RMSW= n.a.                  
  EC= .8459096008253739   QR= 1.152929447182852   TP= 2457076.3748239297      
  OM= 277.075158945082    W= 249.6199231767831    IN= 172.5106594055787       
 Equivalent ICRF heliocentric equatorial cartesian coordinates (au, au/d):
  X= 9.179804529292415E-01  Y= 6.920451027664132E-01  Z= 1.571957088073632E-01
 VX= 1.161839272594589E-02 VY=-1.628318492790988E-02 VZ=-8.389152948609924E-03
Comet physical (GM= km^3/s^2; RAD= km):                                        
  GM= n.a.                RAD= n.a.                                           
  M1=  20.7     M2=  n.a.     k1=  4.5    k2= n.a.     PHCOF= n.a.            
*******************************************************************************
           JDTDB,            Calendar Date (TDB),                     LT,                     RG,                     RR,
**************************************************************************************************************************
$$SOE
2458392.500000000, A.D. 2018-Oct-01 00:00:00.0000,  5.518152717119372E-02,  9.554385252459952E+00,  3.915341401591356E-03,
2458399.500000000, A.D. 2018-Oct-08 00:00:00.0000,  5.533945970024673E-02,  9.581730422190146E+00,  3.897579387874795E-03,
2458406.500000000, A.D. 2018-Oct-15 00:00:00.0000,  5.549667596503392E-02,  9.608951574607140E+00,  3.879907677608912E-03,
2458413.500000000, A.D. 2018-Oct-22 00:00:00.0000,  5.565317959084638E-02,  9.636049337410627E+00,  3.862324995270003E-03,
2458420.500000000, A.D. 2018-Oct-29 00:00:00.0000,  5.580897415056523E-02,  9.663024329225792E+00,  3.844830036573622E-03,
2458427.500000000, A.D. 2018-Nov-05 00:00:00.0000,  5.596406316505638E-02,  9.689877159671672E+00,  3.827421546406235E-03,
2458434.500000000, A.D. 2018-Nov-12 00:00:00.0000,  5.611845010693390E-02,  9.716608430012753E+00,  3.810098407629715E-03,
2458441.500000000, A.D. 2018-Nov-19 00:00:00.0000,  5.627213840714289E-02,  9.743218734298770E+00,  3.792859656547475E-03,
2458448.500000000, A.D. 2018-Nov-26 00:00:00.0000,  5.642513145364590E-02,  9.769708659137246E+00,  3.775703956343748E-03,
2458455.500000000, A.D. 2018-Dec-03 00:00:00.0000,  5.657743255110177E-02,  9.796078776712127E+00,  3.758628380691729E-03,
2458462.500000000, A.D. 2018-Dec-10 00:00:00.0000,  5.672904486692775E-02,  9.822329635444706E+00,  3.741629614551001E-03,
2458469.500000000, A.D. 2018-Dec-17 00:00:00.0000,  5.687997147712758E-02,  9.848461767928525E+00,  3.724706564202880E-03,
2458476.500000000, A.D. 2018-Dec-24 00:00:00.0000,  5.703021544023312E-02,  9.874475703731957E+00,  3.707859091879287E-03,
2458483.500000000, A.D. 2018-Dec-31 00:00:00.0000,  5.717977980351117E-02,  9.900371970472889E+00,  3.691086721284113E-03,
2458490.500000000, A.D. 2019-Jan-07 00:00:00.0000,  5.732866758855337E-02,  9.926151091323701E+00,  3.674388704355216E-03,
2458497.500000000, A.D. 2019-Jan-14 00:00:00.0000,  5.747688178532074E-02,  9.951813583980096E+00,  3.657764252995130E-03,
2458504.500000000, A.D. 2019-Jan-21 00:00:00.0000,  5.762442535327555E-02,  9.977359960857077E+00,  3.641212659970803E-03,
2458511.500000000, A.D. 2019-Jan-28 00:00:00.0000,  5.777130122604459E-02,  1.000279072989638E+01,  3.624733363720162E-03,
2458518.500000000, A.D. 2019-Feb-04 00:00:00.0000,  5.791751231847192E-02,  1.002810639578761E+01,  3.608326007237996E-03,
2458525.500000000, A.D. 2019-Feb-11 00:00:00.0000,  5.806306153607185E-02,  1.005330746160497E+01,  3.591990488799127E-03,
2458532.500000000, A.D. 2019-Feb-18 00:00:00.0000,  5.820795178350744E-02,  1.007839443027529E+01,  3.575726791584932E-03,
2458539.500000000, A.D. 2019-Feb-25 00:00:00.0000,  5.835218595150286E-02,  1.010336780231193E+01,  3.559534000198098E-03,
2458546.500000000, A.D. 2019-Mar-04 00:00:00.0000,  5.849576685909485E-02,  1.012822806581598E+01,  3.543409630358710E-03,
2458553.500000000, A.D. 2019-Mar-11 00:00:00.0000,  5.863869723498178E-02,  1.015297569324691E+01,  3.527352245186105E-03,
2458560.500000000, A.D. 2019-Mar-18 00:00:00.0000,  5.878097979475562E-02,  1.017761115479491E+01,  3.511362370145801E-03,
2458567.500000000, A.D. 2019-Mar-25 00:00:00.0000,  5.892261728089300E-02,  1.020213492530507E+01,  3.495440565592415E-03,
2458574.500000000, A.D. 2019-Apr-01 00:00:00.0000,  5.906361244764150E-02,  1.022654748166058E+01,  3.479586871997411E-03,
2458581.500000000, A.D. 2019-Apr-08 00:00:00.0000,  5.920396804406046E-02,  1.025084929984631E+01,  3.463801031726652E-03,
2458588.500000000, A.D. 2019-Apr-15 00:00:00.0000,  5.934368680588599E-02,  1.027504085354030E+01,  3.448082662561799E-03,
2458595.500000000, A.D. 2019-Apr-22 00:00:00.0000,  5.948277145237572E-02,  1.029912261356739E+01,  3.432431341921968E-03,
2458602.500000000, A.D. 2019-Apr-29 00:00:00.0000,  5.962122468588533E-02,  1.032309504782597E+01,  3.416846666533080E-03,
2458609.500000000, A.D. 2019-May-06 00:00:00.0000,  5.975904919398840E-02,  1.034695862165498E+01,  3.401328319913318E-03,
2458616.500000000, A.D. 2019-May-13 00:00:00.0000,  5.989624765379320E-02,  1.037071379858136E+01,  3.385876085670192E-03,
2458623.500000000, A.D. 2019-May-20 00:00:00.0000,  6.003282272977196E-02,  1.039436103994415E+01,  3.370489403000771E-03,
2458630.500000000, A.D. 2019-May-27 00:00:00.0000,  6.016877703591759E-02,  1.041790079834222E+01,  3.355166152803912E-03,
2458637.500000000, A.D. 2019-Jun-03 00:00:00.0000,  6.030411307478722E-02,  1.044133350707989E+01,  3.339903428129772E-03,
2458644.500000000, A.D. 2019-Jun-10 00:00:00.0000,  6.043883326785310E-02,  1.046465958542208E+01,  3.324700343172724E-03,
2458651.500000000, A.D. 2019-Jun-17 00:00:00.0000,  6.057294003021990E-02,  1.048787945153121E+01,  3.309557085760833E-03,
2458658.500000000, A.D. 2019-Jun-24 00:00:00.0000,  6.070643577778365E-02,  1.051099352370671E+01,  3.294473421827498E-03,
2458665.500000000, A.D. 2019-Jul-01 00:00:00.0000,  6.083932290755702E-02,  1.053400221697846E+01,  3.279448699653828E-03,
2458672.500000000, A.D. 2019-Jul-08 00:00:00.0000,  6.097160378634325E-02,  1.055690594114572E+01,  3.264482110526200E-03,
2458679.500000000, A.D. 2019-Jul-15 00:00:00.0000,  6.110328074773869E-02,  1.057970510025820E+01,  3.249572837927519E-03,
2458686.500000000, A.D. 2019-Jul-22 00:00:00.0000,  6.123435609367366E-02,  1.060240009288276E+01,  3.234720144543167E-03,
2458693.500000000, A.D. 2019-Jul-29 00:00:00.0000,  6.136483209917532E-02,  1.062499131292815E+01,  3.219923450538714E-03,
2458700.500000000, A.D. 2019-Aug-05 00:00:00.0000,  6.149471102034366E-02,  1.064747915102596E+01,  3.205182407647658E-03,
2458707.500000000, A.D. 2019-Aug-12 00:00:00.0000,  6.162399510295782E-02,  1.066986399602082E+01,  3.190496796457932E-03,
2458714.500000000, A.D. 2019-Aug-19 00:00:00.0000,  6.175268657403832E-02,  1.069214623350936E+01,  3.175865683339471E-03,
2458721.500000000, A.D. 2019-Aug-26 00:00:00.0000,  6.188078758983747E-02,  1.071432623683510E+01,  3.161286564407356E-03,
2458728.500000000, A.D. 2019-Sep-02 00:00:00.0000,  6.200830020912912E-02,  1.073640436246368E+01,  3.146757704119396E-03,
2458735.500000000, A.D. 2019-Sep-09 00:00:00.0000,  6.213522646837734E-02,  1.075838096299793E+01,  3.132279543621936E-03,
